{
  "name": "SATGUS",
  "line1": "1 62713U 25009DJ  26012.17955856  .00008349  00000+0  69639-3 0  9991",
  "line2": "2 62713  97.7202  94.9942 0000863 351.8458   8.2751 14.98839665 54175",
  "fetched_at": "2026-01-13T00:17:18.357888+00:00"
}